[
  {
    
    "Street": "Winchester",
    "City": "Johannesburg",
    "Province": "Gauteng",
    "ZipCode": "2000"
  },
  {
   
    "Street": "Winchester",
    "City": "Johannesburg",
    "Province": "Gauteng",
    "ZipCode": "2025"
  },
  {
 
    "Street": "NorthCliff",
    "City": "Johannesburg",
    "Province": "Gauteng",
    "ZipCode": "2022"
  },
  {
    
    "Street": "NorthCliff",
    "City": "Johannesburg",
    "Province": "Gauteng",
    "ZipCode": "2100"
  },
  {
    
    "Street": "Meredale",
    "City": "Johannesburg",
    "Province": "Gauteng",
    "ZipCode": "2301"
  },
  {
   
    "Street": "Waterfall",
    "City": "Midrand",
    "Province": "Gauteng",
    "ZipCode": "1685"
  },
  {
   
    "Street": "Vonavally",
    "City": "Midrand",
    "Province": "Gauteng",
    "ZipCode": "1684"
  },
  {
    
    "Street": "Ridgestone",
    "City": "Midrand",
    "Province": "Gauteng",
    "ZipCode": "1567"
  },
  {
   
    "Street": "Ridgeway",
    "City": "Midrand",
    "Province": "Gauteng",
    "ZipCode": "1689"
  },
  {
    
    "Street": "Bluevally",
    "City": "Midrand",
    "Province": "Gauteng",
    "ZipCode": "1685"
  },
  {
   
    "Street": "Centurion East",
    "City": "Pretoria",
    "Province": "Gauteng",
    "ZipCode": "3006"
  },
  {

    "Street": "Midrand",
    "City": "Johannesburg",
    "Province": "Gauteng",
    "ZipCode": "1365"
  },
  {
    
    "Street": "Centurion",
    "City": "Pretoria",
    "Province": "Gauteng",
    "ZipCode": "4365"
  },
  {
    
    "Street": "Centurion",
    "City": "Pretoria",
    "Province": "Gauteng",
    "ZipCode": "1365"
  },
  {
    
    "Street": "Centurion",
    "City": "Pretoria",
    "Province": "Gauteng",
    "ZipCode": "1775"
  },
  {
    
    "Street": "Sandton",
    "City": "Johanneburg",
    "Province": "Gauteng",
    "ZipCode": "1865"
  },
  {
    
    "Street": "North Riding",
    "City": "Johannesburg",
    "Province": "Gauteng",
    "ZipCode": "1365"
  },
  {
    
    "Street": "Sandton",
    "City": "Johannesburg",
    "Province": "Gauteng",
    "ZipCode": "1365"
  },
  {
    
    "Street": "Sunninghill",
    "City": "Johanneburg",
    "Province": "Gauteng",
    "ZipCode": "1365"
  },
  {
    
    "Street": "Centurion",
    "City": "Pretoria",
    "Province": "Gauteng",
    "ZipCode": "1665"
  }


]
